CCSDS_OMM_VERS = 2.0
CREATION_DATE  = 
ORIGINATOR     = 

OBJECT_NAME    = STARLINK-35780
OBJECT_ID      = 2025-288R
CENTER_NAME    = EARTH
REF_FRAME      = TEME
TIME_SYSTEM    = UTC
MEAN_ELEMENT_THEORY = SGP/SGP4

EPOCH          = 2026-01-03T14:00:01.999872
MEAN_MOTION    = 15.40623278
ECCENTRICITY   = .00009607
INCLINATION    = 43.0004
RA_OF_ASC_NODE = 36.2120
ARG_OF_PERICENTER = 288.6527
MEAN_ANOMALY   = 2.7138

EPHEMERIS_TYPE = 0
CLASSIFICATION_TYPE = U
NORAD_CAT_ID   = 66974
ELEMENT_SET_NO = 999
REV_AT_EPOCH   = 534
BSTAR          = .2561409E-2
MEAN_MOTION_DOT = .107943E-2
MEAN_MOTION_DDOT = 0

CCSDS_OMM_VERS = 2.0
CREATION_DATE  = 
ORIGINATOR     = 

OBJECT_NAME    = STARLINK-35777
OBJECT_ID      = 2025-288S
CENTER_NAME    = EARTH
REF_FRAME      = TEME
TIME_SYSTEM    = UTC
MEAN_ELEMENT_THEORY = SGP/SGP4

EPOCH          = 2026-01-03T14:00:01.999872
MEAN_MOTION    = 15.40612750
ECCENTRICITY   = .0001354
INCLINATION    = 43.0001
RA_OF_ASC_NODE = 36.1797
ARG_OF_PERICENTER = 278.1398
MEAN_ANOMALY   = 25.6862

EPHEMERIS_TYPE = 0
CLASSIFICATION_TYPE = U
NORAD_CAT_ID   = 66975
ELEMENT_SET_NO = 999
REV_AT_EPOCH   = 534
BSTAR          = .25842082E-2
MEAN_MOTION_DOT = .108882E-2
MEAN_MOTION_DDOT = 0

CCSDS_OMM_VERS = 2.0
CREATION_DATE  = 
ORIGINATOR     = 

OBJECT_NAME    = STARLINK-35772
OBJECT_ID      = 2025-288T
CENTER_NAME    = EARTH
REF_FRAME      = TEME
TIME_SYSTEM    = UTC
MEAN_ELEMENT_THEORY = SGP/SGP4

EPOCH          = 2026-01-03T11:31:25.267584
MEAN_MOTION    = 15.40734725
ECCENTRICITY   = .00013225
INCLINATION    = 43.0014
RA_OF_ASC_NODE = 38.7655
ARG_OF_PERICENTER = 269.0767
MEAN_ANOMALY   = 90.9938

EPHEMERIS_TYPE = 0
CLASSIFICATION_TYPE = U
NORAD_CAT_ID   = 66976
ELEMENT_SET_NO = 999
REV_AT_EPOCH   = 523
BSTAR          = .27702974E-2
MEAN_MOTION_DOT = .117349E-2
MEAN_MOTION_DDOT = 0

CCSDS_OMM_VERS = 2.0
CREATION_DATE  = 
ORIGINATOR     = 

OBJECT_NAME    = STARLINK-35770
OBJECT_ID      = 2025-288U
CENTER_NAME    = EARTH
REF_FRAME      = TEME
TIME_SYSTEM    = UTC
MEAN_ELEMENT_THEORY = SGP/SGP4

EPOCH          = 2026-01-01T14:00:43.463232
MEAN_MOTION    = 15.50604727
ECCENTRICITY   = .000113
INCLINATION    = 43.0009
RA_OF_ASC_NODE = 47.6983
ARG_OF_PERICENTER = 275.3451
MEAN_ANOMALY   = 84.7280

EPHEMERIS_TYPE = 0
CLASSIFICATION_TYPE = U
NORAD_CAT_ID   = 66977
ELEMENT_SET_NO = 999
REV_AT_EPOCH   = 496
BSTAR          = .17973E-2
MEAN_MOTION_DOT = .106642E-2
MEAN_MOTION_DDOT = 0

CCSDS_OMM_VERS = 2.0
CREATION_DATE  = 
ORIGINATOR     = 

OBJECT_NAME    = STARLINK-35787
OBJECT_ID      = 2025-288V
CENTER_NAME    = EARTH
REF_FRAME      = TEME
TIME_SYSTEM    = UTC
MEAN_ELEMENT_THEORY = SGP/SGP4

EPOCH          = 2026-01-03T14:00:01.999872
MEAN_MOTION    = 15.40620106
ECCENTRICITY   = .00018045
INCLINATION    = 43.0009
RA_OF_ASC_NODE = 36.3001
ARG_OF_PERICENTER = 275.6526
MEAN_ANOMALY   = 338.4003

EPHEMERIS_TYPE = 0
CLASSIFICATION_TYPE = U
NORAD_CAT_ID   = 66978
ELEMENT_SET_NO = 999
REV_AT_EPOCH   = 534
BSTAR          = .24557653E-2
MEAN_MOTION_DOT = .103407E-2
MEAN_MOTION_DDOT = 0

CCSDS_OMM_VERS = 2.0
CREATION_DATE  = 
ORIGINATOR     = 

OBJECT_NAME    = STARLINK-36107
OBJECT_ID      = 2025-288W
CENTER_NAME    = EARTH
REF_FRAME      = TEME
TIME_SYSTEM    = UTC
MEAN_ELEMENT_THEORY = SGP/SGP4

EPOCH          = 2026-01-03T10:48:43.284672
MEAN_MOTION    = 15.50590270
ECCENTRICITY   = .00013683
INCLINATION    = 43.0008
RA_OF_ASC_NODE = 36.7632
ARG_OF_PERICENTER = 271.3283
MEAN_ANOMALY   = 88.7420

EPHEMERIS_TYPE = 0
CLASSIFICATION_TYPE = U
NORAD_CAT_ID   = 66979
ELEMENT_SET_NO = 999
REV_AT_EPOCH   = 525
BSTAR          = .1595152E-2
MEAN_MOTION_DOT = .94412E-3
MEAN_MOTION_DDOT = 0

CCSDS_OMM_VERS = 2.0
CREATION_DATE  = 
ORIGINATOR     = 

OBJECT_NAME    = STARLINK-36086
OBJECT_ID      = 2025-288X
CENTER_NAME    = EARTH
REF_FRAME      = TEME
TIME_SYSTEM    = UTC
MEAN_ELEMENT_THEORY = SGP/SGP4

EPOCH          = 2026-01-03T14:00:01.999872
MEAN_MOTION    = 15.40628446
ECCENTRICITY   = .00007753
INCLINATION    = 43.0000
RA_OF_ASC_NODE = 36.1171
ARG_OF_PERICENTER = 275.1625
MEAN_ANOMALY   = 53.5166

EPHEMERIS_TYPE = 0
CLASSIFICATION_TYPE = U
NORAD_CAT_ID   = 66980
ELEMENT_SET_NO = 999
REV_AT_EPOCH   = 534
BSTAR          = .24258425E-2
MEAN_MOTION_DOT = .102153E-2
MEAN_MOTION_DDOT = 0

CCSDS_OMM_VERS = 2.0
CREATION_DATE  = 
ORIGINATOR     = 

OBJECT_NAME    = STARLINK-36142
OBJECT_ID      = 2025-288Y
CENTER_NAME    = EARTH
REF_FRAME      = TEME
TIME_SYSTEM    = UTC
MEAN_ELEMENT_THEORY = SGP/SGP4

EPOCH          = 2026-01-03T14:00:01.999872
MEAN_MOTION    = 15.41030924
ECCENTRICITY   = .00011572
INCLINATION    = 43.0001
RA_OF_ASC_NODE = 36.0579
ARG_OF_PERICENTER = 278.0723
MEAN_ANOMALY   = 75.3161

EPHEMERIS_TYPE = 0
CLASSIFICATION_TYPE = U
NORAD_CAT_ID   = 66981
ELEMENT_SET_NO = 999
REV_AT_EPOCH   = 534
BSTAR          = -.13617742E-1
MEAN_MOTION_DOT = -.536727E-2
MEAN_MOTION_DDOT = 0

CCSDS_OMM_VERS = 2.0
CREATION_DATE  = 
ORIGINATOR     = 

OBJECT_NAME    = STARLINK-36113
OBJECT_ID      = 2025-288Z
CENTER_NAME    = EARTH
REF_FRAME      = TEME
TIME_SYSTEM    = UTC
MEAN_ELEMENT_THEORY = SGP/SGP4

EPOCH          = 2026-01-03T12:19:59.329632
MEAN_MOTION    = 15.50628024
ECCENTRICITY   = .00015254
INCLINATION    = 43.0007
RA_OF_ASC_NODE = 36.3768
ARG_OF_PERICENTER = 274.6386
MEAN_ANOMALY   = 85.4300

EPHEMERIS_TYPE = 0
CLASSIFICATION_TYPE = U
NORAD_CAT_ID   = 66982
ELEMENT_SET_NO = 999
REV_AT_EPOCH   = 526
BSTAR          = .1868042E-2
MEAN_MOTION_DOT = .111008E-2
MEAN_MOTION_DDOT = 0

CCSDS_OMM_VERS = 2.0
CREATION_DATE  = 
ORIGINATOR     = 

OBJECT_NAME    = STARLINK-36145
OBJECT_ID      = 2025-288AA
CENTER_NAME    = EARTH
REF_FRAME      = TEME
TIME_SYSTEM    = UTC
MEAN_ELEMENT_THEORY = SGP/SGP4

EPOCH          = 2026-01-03T10:46:14.741472
MEAN_MOTION    = 15.50632907
ECCENTRICITY   = .00017382
INCLINATION    = 43.0002
RA_OF_ASC_NODE = 36.7485
ARG_OF_PERICENTER = 276.2436
MEAN_ANOMALY   = 83.8226

EPHEMERIS_TYPE = 0
CLASSIFICATION_TYPE = U
NORAD_CAT_ID   = 66983
ELEMENT_SET_NO = 999
REV_AT_EPOCH   = 525
BSTAR          = .23783331E-2
MEAN_MOTION_DOT = .142017E-2
MEAN_MOTION_DDOT = 0

CCSDS_OMM_VERS = 2.0
CREATION_DATE  = 
ORIGINATOR     = 

OBJECT_NAME    = STARLINK-35591
OBJECT_ID      = 2025-288AB
CENTER_NAME    = EARTH
REF_FRAME      = TEME
TIME_SYSTEM    = UTC
MEAN_ELEMENT_THEORY = SGP/SGP4

EPOCH          = 2026-01-03T10:46:44.352480
MEAN_MOTION    = 15.50632153
ECCENTRICITY   = .00018048
INCLINATION    = 43.0003
RA_OF_ASC_NODE = 36.7509
ARG_OF_PERICENTER = 272.9705
MEAN_ANOMALY   = 87.0949

EPHEMERIS_TYPE = 0
CLASSIFICATION_TYPE = U
NORAD_CAT_ID   = 66984
ELEMENT_SET_NO = 999
REV_AT_EPOCH   = 525
BSTAR          = .24436229E-2
MEAN_MOTION_DOT = .145996E-2
MEAN_MOTION_DDOT = 0

CCSDS_OMM_VERS = 2.0
CREATION_DATE  = 
ORIGINATOR     = 

OBJECT_NAME    = STARLINK-36103
OBJECT_ID      = 2025-288AC
CENTER_NAME    = EARTH
REF_FRAME      = TEME
TIME_SYSTEM    = UTC
MEAN_ELEMENT_THEORY = SGP/SGP4

EPOCH          = 2026-01-03T10:45:45.038880
MEAN_MOTION    = 15.50646229
ECCENTRICITY   = .00013003
INCLINATION    = 43.0003
RA_OF_ASC_NODE = 36.7452
ARG_OF_PERICENTER = 277.9288
MEAN_ANOMALY   = 82.1425

EPHEMERIS_TYPE = 0
CLASSIFICATION_TYPE = U
NORAD_CAT_ID   = 66985
ELEMENT_SET_NO = 999
REV_AT_EPOCH   = 525
BSTAR          = .25147888E-2
MEAN_MOTION_DOT = .150417E-2
MEAN_MOTION_DDOT = 0

