STARLINK-35780          
1 66974U 25288R   26003.58335648  .00107943  00000+0  25614-2 0  9993
2 66974  43.0004  36.2120 0000960 288.6527   2.7138 15.40623278  5343
STARLINK-35777          
1 66975U 25288S   26003.58335648  .00108882  00000+0  25842-2 0  9990
2 66975  43.0001  36.1797 0001354 278.1398  25.6862 15.40612750  5349
STARLINK-35772          
1 66976U 25288T   26003.48015356  .00117349  00000+0  27703-2 0  9997
2 66976  43.0014  38.7655 0001322 269.0767  90.9938 15.40734725  5233
STARLINK-35770          
1 66977U 25288U   26001.58383638  .00106642  00000+0  17973-2 0  9990
2 66977  43.0009  47.6983 0001130 275.3451  84.7280 15.50604727  4967
STARLINK-35787          
1 66978U 25288V   26003.58335648  .00103407  00000+0  24558-2 0  9994
2 66978  43.0009  36.3001 0001804 275.6526 338.4003 15.40620106  5341
STARLINK-36107          
1 66979U 25288W   26003.45050098  .00094412  00000+0  15952-2 0  9997
2 66979  43.0008  36.7632 0001368 271.3283  88.7420 15.50590270  5250
STARLINK-36086          
1 66980U 25288X   26003.58335648  .00102153  00000+0  24258-2 0  9991
2 66980  43.0000  36.1171 0000775 275.1625  53.5166 15.40628446  5342
STARLINK-36142          
1 66981U 25288Y   26003.58335648 -.00536727  00000+0 -13618-1 0  9999
2 66981  43.0001  36.0579 0001157 278.0723  75.3161 15.41030924  5347
STARLINK-36113          
1 66982U 25288Z   26003.51388113  .00111008  00000+0  18680-2 0  9992
2 66982  43.0007  36.3768 0001525 274.6386  85.4300 15.50628024  5265
STARLINK-36145          
1 66983U 25288AA  26003.44878173  .00142017  00000+0  23783-2 0  9999
2 66983  43.0002  36.7485 0001738 276.2436  83.8226 15.50632907  5254
STARLINK-35591          
1 66984U 25288AB  26003.44912445  .00145996  00000+0  24436-2 0  9996
2 66984  43.0003  36.7509 0001804 272.9705  87.0949 15.50632153  5250
STARLINK-36103          
1 66985U 25288AC  26003.44843795  .00150417  00000+0  25148-2 0  9993
2 66985  43.0003  36.7452 0001300 277.9288  82.1425 15.50646229  5254
